[{"OBJECT_NAME":"STARLINK-5529","OBJECT_ID":"2023-064AZ","EPOCH":"2026-03-09T11:37:28.058592","MEAN_MOTION":14.98326175,"ECCENTRICITY":0.00033241,"INCLINATION":69.9996,"RA_OF_ASC_NODE":104.9006,"ARG_OF_PERICENTER":264.4846,"MEAN_ANOMALY":95.5934,"EPHEMERIS_TYPE":0,"CLASSIFICATION_TYPE":"U","NORAD_CAT_ID":56495,"ELEMENT_SET_NO":999,"REV_AT_EPOCH":15620,"BSTAR":2.0532138e-5,"MEAN_MOTION_DOT":1.52e-6,"MEAN_MOTION_DDOT":0},{"OBJECT_NAME":"CZ-6A DEB","OBJECT_ID":"2022-151SB","EPOCH":"2026-03-09T22:09:26.196768","MEAN_MOTION":14.85244417,"ECCENTRICITY":0.00728534,"INCLINATION":99.1392,"RA_OF_ASC_NODE":215.607,"ARG_OF_PERICENTER":235.4544,"MEAN_ANOMALY":123.9777,"EPHEMERIS_TYPE":0,"CLASSIFICATION_TYPE":"U","NORAD_CAT_ID":54938,"ELEMENT_SET_NO":999,"REV_AT_EPOCH":17622,"BSTAR":0.0039580306,"MEAN_MOTION_DOT":0.00035713,"MEAN_MOTION_DDOT":0}]
